34D/Gale,e,10.5827,57.8679,218.0424,5.014439,0.0877749,0.75787968,293.2531,07/26.0/2024,2000,g  9.0,4.0
# From  15, 452
35P/Herschel-Rigollet,e,64.945,356.452,29.100,28.5387,0.006465,0.9744144,0.000,03/26.5878/2092,2000,g  9.0,4.0
# From MPEC 2023-RF3
36P/Whipple,e,9.9493,181.8388,201.1754,4.139813,0.1170127,0.26860114,177.2385,07/26.0/2024,2000,g  8.5,6.0
# From MPEC 2024-O39
37P/Forbes,e,8.9474,314.5505,330.0675,3.462979,0.1529429,0.53282615,348.1847,07/26.0/2024,2000,g 10.5,4.8
# From MPEC 2018-S50
38P/Stephan-Oterma,e,18.4000,77.8771,359.5388,11.25359,0.0261076,0.85981155,54.3484,07/26.0/2024,2000,g  3.5,12.0
# From MPEC 2024-AF0
39P/Oterma,e,1.6273,291.1764,110.3370,7.057398,0.0525699,0.18940461,18.4573,07/26.0/2024,2000,g  7.0,6.0
# From MPC100283
40P/Vaisala,e,11.5956,129.5237,51.3877,4.969378,0.0889715,0.63366867,317.9130,07/26.0/2024,2000,g  5.5,12.0
# From MPEC 2023-SQ0
41P/Tuttle-Giacobini-Kresak,e,9.2164,140.9732,62.2363,3.088244,0.1816087,0.65955213,123.7657,07/26.0/2024,2000,g 10.0,16.0
# From MPC 94283
42P/Neujmin,e,3.9888,150.1588,147.1758,4.876894,0.0915143,0.58405903,310.7645,07/26.0/2024,2000,g 13.0,6.0
# From MPEC 2024-O39
43P/Wolf-Harrington,e,9.3343,243.9941,223.9722,4.325784,0.1095486,0.43565099,318.8940,07/26.0/2024,2000,g  9.0,4.0
# From MPEC 2024-F34
44P/Reinmuth,e,5.8964,286.4253,58.0172,3.687721,0.1391768,0.42697612,114.8715,07/26.0/2024,2000,g  8.3,6.0
# From MPEC 2022-O01
45P/Honda-Mrkos-Pajdusakova,e,4.3238,87.6888,327.9385,3.056598,0.1844364,0.81773635,151.3858,07/26.0/2024,2000,g 13.5,8.0
# From MPEC 2024-F91
46P/Wirtanen,e,11.7498,82.1620,356.3192,3.091133,0.1813542,0.65876096,12.3143,07/26.0/2024,2000,g 14.0,6.0
# From MPEC 2023-J29
47P/Ashbrook-Jackson,e,13.0373,356.8957,357.8707,4.119579,0.1178759,0.31847262,305.9085,07/26.0/2024,2000,g  1.0,11.2
# From MPEC 2024-N80
48P/Johnson,e,12.2010,110.0649,216.7727,3.500468,0.1504925,0.42678904,326.9486,07/26.0/2024,2000,g 10.0,6.0
# From MPEC 2024-NE4
49P/Arend-Rigaux,e,19.0588,118.7947,332.9402,3.568884,0.1461859,0.59893405,322.1901,07/26.0/2024,2000,g 11.3,4.4
# From MPEC 2024-BE0
50P/Arend,e,19.0977,355.1616,49.3429,4.090185,0.1191488,0.53002448,8.8459,07/26.0/2024,2000,g  9.5,6.0
# From MPEC 2023-J29
51P/Harrington,e,5.4264,83.6596,269.2422,3.705396,0.1381822,0.54305240,91.7440,07/26.0/2024,2000,g 10.0,8.0
# From NK 3014
51P-A/Harrington,e,5.4265,269.2340,83.6484,3.706662,0.1381114,0.54324242,91.3409,07/26.0/2024,2000,g 10.0,8.0
# From MPEC 2023-J29
51P-D/Harrington,e,5.4269,83.6478,269.2603,3.705750,0.1381624,0.54318223,91.6724,07/26.0/2024,2000,g 16.0,8.0
# From MPEC 2023-XP6
52P/Harrington-Abell,e,10.2338,336.7819,139.5756,3.862550,0.1298353,0.54082597,132.9959,07/26.0/2024,2000,g 13.5,6.0
# From MPEC 2023-TM6
53P/VanBiesbroeck,e,6.6037,148.8475,134.4007,5.436833,0.0777472,0.54962000,234.4440,07/26.0/2024,2000,g  7.7,4.8
# From MPC 89011
54P/de Vico-Swift-NEAT,e,6.0643,358.8470,1.9298,3.785637,0.1338122,0.42628462,354.6570,07/26.0/2024,2000,g  9.0,4.0
# From MPC 31070
55P/Tempel-Tuttle,e,162.4967,235.4179,172.4680,10.34539,0.0296199,0.90562836,286.2158,07/26.0/2024,2000,g  9.0,4.0
# From MPEC 2023-TM6
56P/Slaughter-Burnham,e,8.1557,345.9248,44.1675,5.064007,0.0864893,0.50858788,252.6672,07/26.0/2024,2000,g  8.5,6.0
# From MPEC 2024-DC6
57P/duToit-Neujmin-Delporte,e,2.8524,188.7707,115.0756,3.441984,0.1543444,0.50081603,156.4015,07/26.0/2024,2000,g 12.5,6.0
# From MPEC 2024-A43
58P/Jackson-Neujmin,e,13.0960,159.0581,200.5712,4.090001,0.1191568,0.66212861,181.1796,07/26.0/2024,2000,g 15.5,6.0
# From MPEC 2023-A50
59P/Kearns-Kwee,e,9.3518,312.7421,127.6121,4.480587,0.1039206,0.47689395,221.9653,07/26.0/2024,2000,g  7.0,6.0
# From MPEC 2021-F20
60P/Tsuchinshan,e,3.5812,267.4319,216.9418,3.528013,0.1487335,0.53373193,306.4983,07/26.0/2024,2000,g 11.5,6.0
# From MPEC 2024-JU4
61P/Shajn-Schaldach,e,5.9986,162.9640,221.6758,3.689460,0.1390785,0.42344695,89.1930,07/26.0/2024,2000,g  6.0,10.0
# From MPEC 2024-O39
62P/Tsuchinshan,e,4.7375,68.6663,47.3120,3.369886,0.1593240,0.62461409,34.0745,07/26.0/2024,2000,g  8.0,10.0
# From MPC 84320
63P/Wild,e,19.6448,357.8547,168.8540,5.637013,0.0736428,0.65048952,307.6687,07/26.0/2024,2000,g 10.5,6.0
# From MPEC 2024-A43
64P/Swift-Gehrels,e,8.9517,299.8075,97.2932,4.452218,0.1049155,0.68868978,219.0507,07/26.0/2024,2000,g  9.5,12.0
# From MPEC 2024-O39
65P/Gunn,e,9.1760,61.9765,213.7320,3.891442,0.1283921,0.24812438,318.1793,07/26.0/2024,2000,g  5.0,6.0
# From MPEC 2021-F20
66P/duToit,e,18.6421,21.8059,257.4463,6.070765,0.0658929,0.78512612,149.1741,07/26.0/2024,2000,g 15.0,4.0
# From MPEC 2024-C04
67P/Churyumov-Gerasimenko,e,3.8704,36.3266,22.1819,3.458250,0.1532567,0.64999084,152.7209,07/26.0/2024,2000,g 11.0,4.0
# From MPEC 2023-HD1
68P/Klemola,e,11.1052,175.0738,153.2566,4.962299,0.0891620,0.63624227,153.5659,07/26.0/2024,2000,g 12.6,4.0
# From MPEC 2024-C04
69P/Taylor,e,22.0595,104.8060,343.4431,3.882021,0.1288597,0.41455554,251.8503,07/26.0/2024,2000,g  9.5,12.0
# From MPEC 2023-VM5
70P/Kojima,e,6.6011,119.2375,1.7765,3.676093,0.1398377,0.45448354,139.2082,07/26.0/2024,2000,g 11.0,6.0
# From MPEC 2024-A43
71P/Clark,e,9.4354,59.3852,209.4953,3.151138,0.1761988,0.49354235,96.8352,07/26.0/2024,2000,g  9.8,6.0
# From MPEC 2023-VM5
72P/Denning-Fujikawa,e,10.9479,26.7036,346.7409,4.307228,0.1102573,0.81855897,44.7936,07/26.0/2024,2000,g 17.5,10.0
# From MPEC 2023-RF3
73P/Schwassmann-Wachmann,e,11.3251,69.5208,199.1779,3.080441,0.1822992,0.69208192,127.0602,07/26.0/2024,2000,g 11.5,6.0
# From NK 1613
73P-B/Schwassmann-Wachmann B,e,11.1240,198.7702,69.9352,3.083912,0.1819915,0.69118857,126.2373,07/26.0/2024,2000,g  9.0,4.0
# From NK 2710
73P-C/Schwassmann-Wachmann,e,11.1228,198.8293,69.9065,3.082659,0.1821025,0.69086996,127.0635,07/26.0/2024,2000,g  9.0,4.0
# From NK 934
73P-E/Schwassmann-Wachmann,e,11.1217,198.6939,69.9897,3.087548,0.1816701,0.69181424,124.3986,07/26.0/2024,2000,g  9.0,4.0
# From MPC 56796
73P-G/Schwassmann-Wachmann,e,11.388,69.909,198.772,3.06230,0.183922,0.6933024,359.982,06/08.0/2006,2000,g  9.0,4.0
# From MPC 56796
73P-H/Schwassmann-Wachmann,e,11.389,69.903,198.778,3.06223,0.183927,0.6933024,359.948,06/08.0/2006,2000,g  9.0,4.0
# From MPC 56796
73P-J/Schwassmann-Wachmann,e,11.386,69.983,198.673,3.06380,0.183786,0.6933024,359.974,06/08.0/2006,2000,g  9.0,4.0
# From MPC 56797
73P-K/Schwassmann-Wachmann,e,11.390,69.881,198.809,3.06176,0.183970,0.6933024,359.959,06/08.0/2006,2000,g  9.0,4.0
# From MPC 56797
73P-L/Schwassmann-Wachmann,e,11.388,69.911,198.772,3.06211,0.183938,0.6933024,359.937,06/08.0/2006,2000,g  9.0,4.0
# From MPC 56797
73P-M/Schwassmann-Wachmann,e,11.389,69.895,198.787,3.06205,0.183944,0.6933024,359.952,06/08.0/2006,2000,g  9.0,4.0
# From MPC 56797
73P-N/Schwassmann-Wachmann,e,11.389,69.909,198.754,3.06231,0.183921,0.6933024,359.952,06/08.0/2006,2000,g  9.0,4.0
# From MPC 56797
73P-P/Schwassmann-Wachmann,e,11.390,69.900,198.783,3.06222,0.183929,0.6933024,359.839,06/07.0/2006,2000,g  9.0,4.0
# From MPC 56797
73P-Q/Schwassmann-Wachmann,e,11.387,69.944,198.717,3.06298,0.183860,0.6933024,359.867,06/07.0/2006,2000,g  9.0,4.0
# From MPC 56797
73P-R/Schwassmann-Wachmann,e,11.388,69.904,198.776,3.06224,0.183927,0.6933024,359.966,06/08.0/2006,2000,g  9.0,4.0
# From MPC 56797
73P-S/Schwassmann-Wachmann,e,11.127,77.364,188.229,3.22719,0.170007,0.6933024,359.883,06/08.0/2006,2000,g  9.0,4.0
# From MPEC 2023-J29
73P-T/Schwassmann-Wachmann,e,11.3282,69.5267,199.1590,3.079207,0.1824088,0.69195460,127.3596,07/26.0/2024,2000,g  9.0,4.0
# From MPC 56797
73P-U/Schwassmann-Wachmann,e,11.384,69.994,198.659,3.06366,0.183799,0.6933024,359.997,06/09.0/2006,2000,g  9.0,4.0
# From MPC 56797
73P-V/Schwassmann-Wachmann,e,11.651,65.236,204.943,2.97417,0.192156,0.6933024,359.908,06/08.0/2006,2000,g  9.0,4.0
# From MPC 56797
73P-W/Schwassmann-Wachmann,e,11.390,69.884,198.803,3.06185,0.183962,0.6933024,359.908,06/08.0/2006,2000,g  9.0,4.0
# From MPC 56798
73P-X/Schwassmann-Wachmann,e,11.388,69.900,198.778,3.06207,0.183942,0.6933024,359.896,06/08.0/2006,2000,g  9.0,4.0
# From MPC 56798
73P-Y/Schwassmann-Wachmann,e,11.391,69.879,198.785,3.06200,0.183948,0.6933024,359.858,06/08.0/2006,2000,g  9.0,4.0
# From MPC 56798
73P-Z/Schwassmann-Wachmann,e,11.349,70.493,198.017,3.07155,0.183091,0.6933024,359.943,06/08.0/2006,2000,g  9.0,4.0
# From MPC 56798
73P-AA/Schwassmann-Wachmann,e,11.390,69.883,198.804,3.06182,0.183965,0.6933024,359.984,06/09.0/2006,2000,g  9.0,4.0
# From MPC 56798
73P-AB/Schwassmann-Wachmann,e,11.390,69.888,198.792,3.06183,0.183964,0.6933024,359.872,06/08.0/2006,2000,g  9.0,4.0
# From MPC 56798
73P-AC/Schwassmann-Wachmann,e,11.387,69.914,198.766,3.06223,0.183927,0.6933024,359.872,06/08.0/2006,2000,g  9.0,4.0
# From MPC 56798
73P-AD/Schwassmann-Wachmann,e,11.355,70.416,198.119,3.07035,0.183198,0.6933024,359.873,06/08.0/2006,2000,g  9.0,4.0
# From MPC 56798
73P-AE/Schwassmann-Wachmann,e,11.390,69.891,198.790,3.06196,0.183952,0.6933024,359.935,06/08.0/2006,2000,g  9.0,4.0
# From MPC 56798
73P-AF/Schwassmann-Wachmann,e,11.356,70.302,198.217,3.06961,0.183265,0.6933024,359.846,06/06.0/2006,2000,g  9.0,4.0
# From MPC 56798
73P-AG/Schwassmann-Wachmann,e,11.386,69.932,198.724,3.06233,0.183919,0.6933024,359.997,06/09.0/2006,2000,g  9.0,4.0
# From MPC 56798
73P-AH/Schwassmann-Wachmann,e,11.331,70.695,197.755,3.07445,0.182832,0.6933024,359.885,06/08.0/2006,2000,g  9.0,4.0
# From MPC 56798
73P-AI/Schwassmann-Wachmann,e,11.392,69.885,198.806,3.06205,0.183944,0.6933024,359.864,06/08.0/2006,2000,g  9.0,4.0
# From MPC 56799
73P-AJ/Schwassmann-Wachmann,e,11.385,70.041,198.663,3.06262,0.183892,0.6933024,359.864,06/08.0/2006,2000,g  9.0,4.0
# From MPC 56799
73P-AK/Schwassmann-Wachmann,e,11.389,69.784,198.822,3.06244,0.183909,0.6933024,359.927,06/08.0/2006,2000,g  9.0,4.0
# From MPC 56799
73P-AL/Schwassmann-Wachmann,e,11.395,69.843,198.857,3.06140,0.184003,0.6933024,359.916,06/08.0/2006,2000,g  9.0,4.0
# From MPC 56799
